[{"OBJECT_NAME":"STARLINK-35608","OBJECT_ID":"2025-263Z","EPOCH":"2026-03-09T03:20:05.314560","MEAN_MOTION":15.27569338,"ECCENTRICITY":0.00011551,"INCLINATION":43,"RA_OF_ASC_NODE":353.8938,"ARG_OF_PERICENTER":287.9889,"MEAN_ANOMALY":72.0837,"EPHEMERIS_TYPE":0,"CLASSIFICATION_TYPE":"U","NORAD_CAT_ID":66508,"ELEMENT_SET_NO":999,"REV_AT_EPOCH":1881,"BSTAR":0.0012487186,"MEAN_MOTION_DOT":0.00034248,"MEAN_MOTION_DDOT":0},{"OBJECT_NAME":"SL-19 R\/B","OBJECT_ID":"2011-005B","EPOCH":"2026-03-09T21:50:35.538720","MEAN_MOTION":15.57556472,"ECCENTRICITY":0.01260184,"INCLINATION":99.3438,"RA_OF_ASC_NODE":178.5978,"ARG_OF_PERICENTER":174.8144,"MEAN_ANOMALY":185.4445,"EPHEMERIS_TYPE":0,"CLASSIFICATION_TYPE":"U","NORAD_CAT_ID":37363,"ELEMENT_SET_NO":999,"REV_AT_EPOCH":82354,"BSTAR":0.00054776137,"MEAN_MOTION_DOT":0.00058791,"MEAN_MOTION_DDOT":0}]
